[{"OBJECT_NAME":"STARLINK-4655","OBJECT_ID":"2022-104AB","EPOCH":"2025-08-22T04:18:57.478752","MEAN_MOTION":15.08837074,"ECCENTRICITY":0.00013602,"INCLINATION":53.2184,"RA_OF_ASC_NODE":49.9075,"ARG_OF_PERICENTER":92.2684,"MEAN_ANOMALY":267.8464,"EPHEMERIS_TYPE":0,"CLASSIFICATION_TYPE":"U","NORAD_CAT_ID":53613,"ELEMENT_SET_NO":999,"REV_AT_EPOCH":16551,"BSTAR":-1.8063599e-5,"MEAN_MOTION_DOT":-5.75e-6,"MEAN_MOTION_DDOT":0},{"OBJECT_NAME":"STARLINK-4605","OBJECT_ID":"2022-104AE","EPOCH":"2025-08-22T04:04:21.919296","MEAN_MOTION":15.08830019,"ECCENTRICITY":0.00010989,"INCLINATION":53.218,"RA_OF_ASC_NODE":39.675,"ARG_OF_PERICENTER":79.1557,"MEAN_ANOMALY":280.9558,"EPHEMERIS_TYPE":0,"CLASSIFICATION_TYPE":"U","NORAD_CAT_ID":53616,"ELEMENT_SET_NO":999,"REV_AT_EPOCH":16576,"BSTAR":0.00014681864,"MEAN_MOTION_DOT":2.049e-5,"MEAN_MOTION_DDOT":0},{"OBJECT_NAME":"STARLINK-4609","OBJECT_ID":"2022-104AH","EPOCH":"2025-08-20T18:34:38.015904","MEAN_MOTION":15.08835514,"ECCENTRICITY":0.0001347,"INCLINATION":53.2173,"RA_OF_ASC_NODE":56.0606,"ARG_OF_PERICENTER":88.367,"MEAN_ANOMALY":271.7476,"EPHEMERIS_TYPE":0,"CLASSIFICATION_TYPE":"U","NORAD_CAT_ID":53619,"ELEMENT_SET_NO":999,"REV_AT_EPOCH":16530,"BSTAR":-1.6672e-5,"MEAN_MOTION_DOT":-5.53e-6,"MEAN_MOTION_DDOT":0},{"OBJECT_NAME":"STARLINK-4615","OBJECT_ID":"2022-104AJ","EPOCH":"2025-08-20T19:48:47.658240","MEAN_MOTION":15.08837654,"ECCENTRICITY":0.0001422,"INCLINATION":53.2177,"RA_OF_ASC_NODE":55.6715,"ARG_OF_PERICENTER":80.8271,"MEAN_ANOMALY":279.2882,"EPHEMERIS_TYPE":0,"CLASSIFICATION_TYPE":"U","NORAD_CAT_ID":53620,"ELEMENT_SET_NO":999,"REV_AT_EPOCH":16542,"BSTAR":8.6602e-5,"MEAN_MOTION_DOT":1.091e-5,"MEAN_MOTION_DDOT":0},{"OBJECT_NAME":"STARLINK-4608","OBJECT_ID":"2022-104AK","EPOCH":"2025-08-20T21:40:05.928960","MEAN_MOTION":15.08838887,"ECCENTRICITY":0.0001335,"INCLINATION":53.2178,"RA_OF_ASC_NODE":55.4443,"ARG_OF_PERICENTER":88.4229,"MEAN_ANOMALY":271.6916,"EPHEMERIS_TYPE":0,"CLASSIFICATION_TYPE":"U","NORAD_CAT_ID":53621,"ELEMENT_SET_NO":999,"REV_AT_EPOCH":16532,"BSTAR":2.2421e-6,"MEAN_MOTION_DOT":-2.52e-6,"MEAN_MOTION_DDOT":0},{"OBJECT_NAME":"STARLINK-4568","OBJECT_ID":"2022-104AL","EPOCH":"2025-08-20T19:16:57.482976","MEAN_MOTION":15.08835053,"ECCENTRICITY":0.0001347,"INCLINATION":53.2188,"RA_OF_ASC_NODE":55.5405,"ARG_OF_PERICENTER":89.4375,"MEAN_ANOMALY":270.6771,"EPHEMERIS_TYPE":0,"CLASSIFICATION_TYPE":"U","NORAD_CAT_ID":53622,"ELEMENT_SET_NO":999,"REV_AT_EPOCH":16542,"BSTAR":1.1112e-5,"MEAN_MOTION_DOT":-1.11e-6,"MEAN_MOTION_DDOT":0},{"OBJECT_NAME":"STARLINK-4573","OBJECT_ID":"2022-104AM","EPOCH":"2025-08-20T19:54:05.964480","MEAN_MOTION":15.08839332,"ECCENTRICITY":0.0001311,"INCLINATION":53.2182,"RA_OF_ASC_NODE":55.6966,"ARG_OF_PERICENTER":87.8348,"MEAN_ANOMALY":272.2794,"EPHEMERIS_TYPE":0,"CLASSIFICATION_TYPE":"U","NORAD_CAT_ID":53623,"ELEMENT_SET_NO":999,"REV_AT_EPOCH":16542,"BSTAR":4.5298e-5,"MEAN_MOTION_DOT":4.33e-6,"MEAN_MOTION_DDOT":0},{"OBJECT_NAME":"STARLINK-4596","OBJECT_ID":"2022-104AN","EPOCH":"2025-08-20T19:38:10.658688","MEAN_MOTION":15.08837823,"ECCENTRICITY":0.0001353,"INCLINATION":53.2171,"RA_OF_ASC_NODE":55.6249,"ARG_OF_PERICENTER":113.72,"MEAN_ANOMALY":246.3934,"EPHEMERIS_TYPE":0,"CLASSIFICATION_TYPE":"U","NORAD_CAT_ID":53624,"ELEMENT_SET_NO":999,"REV_AT_EPOCH":16542,"BSTAR":3.0956e-5,"MEAN_MOTION_DOT":2.05e-6,"MEAN_MOTION_DDOT":0},{"OBJECT_NAME":"STARLINK-4554","OBJECT_ID":"2022-104AQ","EPOCH":"2025-08-20T19:22:16.162464","MEAN_MOTION":15.08840095,"ECCENTRICITY":0.0001395,"INCLINATION":53.2182,"RA_OF_ASC_NODE":55.5611,"ARG_OF_PERICENTER":96.6252,"MEAN_ANOMALY":263.4899,"EPHEMERIS_TYPE":0,"CLASSIFICATION_TYPE":"U","NORAD_CAT_ID":53626,"ELEMENT_SET_NO":999,"REV_AT_EPOCH":16543,"BSTAR":5.127e-5,"MEAN_MOTION_DOT":5.28e-6,"MEAN_MOTION_DDOT":0},{"OBJECT_NAME":"STARLINK-4595","OBJECT_ID":"2022-104AR","EPOCH":"2025-08-21T19:23:39.740640","MEAN_MOTION":15.08838042,"ECCENTRICITY":0.00012434,"INCLINATION":53.2183,"RA_OF_ASC_NODE":51.1429,"ARG_OF_PERICENTER":90.9483,"MEAN_ANOMALY":269.1652,"EPHEMERIS_TYPE":0,"CLASSIFICATION_TYPE":"U","NORAD_CAT_ID":53627,"ELEMENT_SET_NO":999,"REV_AT_EPOCH":16558,"BSTAR":5.0257824e-5,"MEAN_MOTION_DOT":5.12e-6,"MEAN_MOTION_DDOT":0},{"OBJECT_NAME":"STARLINK-4600","OBJECT_ID":"2022-104AS","EPOCH":"2025-08-22T04:34:45.335136","MEAN_MOTION":15.0883221,"ECCENTRICITY":0.00011648,"INCLINATION":53.2173,"RA_OF_ASC_NODE":49.2672,"ARG_OF_PERICENTER":89.4729,"MEAN_ANOMALY":270.6396,"EPHEMERIS_TYPE":0,"CLASSIFICATION_TYPE":"U","NORAD_CAT_ID":53628,"ELEMENT_SET_NO":999,"REV_AT_EPOCH":16564,"BSTAR":-8.089988e-6,"MEAN_MOTION_DOT":-4.17e-6,"MEAN_MOTION_DDOT":0},{"OBJECT_NAME":"STARLINK-4602","OBJECT_ID":"2022-104AT","EPOCH":"2025-08-20T19:27:34.288992","MEAN_MOTION":15.088329,"ECCENTRICITY":0.0001228,"INCLINATION":53.2174,"RA_OF_ASC_NODE":55.5796,"ARG_OF_PERICENTER":93.4627,"MEAN_ANOMALY":266.6506,"EPHEMERIS_TYPE":0,"CLASSIFICATION_TYPE":"U","NORAD_CAT_ID":53629,"ELEMENT_SET_NO":999,"REV_AT_EPOCH":16543,"BSTAR":-1.1543e-5,"MEAN_MOTION_DOT":-4.72e-6,"MEAN_MOTION_DDOT":0},{"OBJECT_NAME":"STARLINK-4598","OBJECT_ID":"2022-104AU","EPOCH":"2025-08-22T04:05:45.319488","MEAN_MOTION":15.08835216,"ECCENTRICITY":0.00013628,"INCLINATION":53.22,"RA_OF_ASC_NODE":39.8703,"ARG_OF_PERICENTER":93.9749,"MEAN_ANOMALY":266.14,"EPHEMERIS_TYPE":0,"CLASSIFICATION_TYPE":"U","NORAD_CAT_ID":53630,"ELEMENT_SET_NO":999,"REV_AT_EPOCH":16594,"BSTAR":-1.7283782e-5,"MEAN_MOTION_DOT":-5.63e-6,"MEAN_MOTION_DDOT":0},{"OBJECT_NAME":"STARLINK-4599","OBJECT_ID":"2022-104AV","EPOCH":"2025-08-20T19:06:20.529216","MEAN_MOTION":15.08837197,"ECCENTRICITY":0.0001284,"INCLINATION":53.2171,"RA_OF_ASC_NODE":55.489,"ARG_OF_PERICENTER":87.9792,"MEAN_ANOMALY":272.1347,"EPHEMERIS_TYPE":0,"CLASSIFICATION_TYPE":"U","NORAD_CAT_ID":53631,"ELEMENT_SET_NO":999,"REV_AT_EPOCH":16543,"BSTAR":-2.394e-5,"MEAN_MOTION_DOT":-6.69e-6,"MEAN_MOTION_DDOT":0},{"OBJECT_NAME":"STARLINK-4606","OBJECT_ID":"2022-104AW","EPOCH":"2025-08-22T03:53:45.416544","MEAN_MOTION":15.08838114,"ECCENTRICITY":0.00013036,"INCLINATION":53.2182,"RA_OF_ASC_NODE":39.818,"ARG_OF_PERICENTER":90.2413,"MEAN_ANOMALY":269.8729,"EPHEMERIS_TYPE":0,"CLASSIFICATION_TYPE":"U","NORAD_CAT_ID":53632,"ELEMENT_SET_NO":999,"REV_AT_EPOCH":16610,"BSTAR":1.032564e-6,"MEAN_MOTION_DOT":-2.71e-6,"MEAN_MOTION_DDOT":0},{"OBJECT_NAME":"STARLINK-4593","OBJECT_ID":"2022-104AX","EPOCH":"2025-08-22T03:59:04.666272","MEAN_MOTION":15.0882722,"ECCENTRICITY":0.00012568,"INCLINATION":53.2181,"RA_OF_ASC_NODE":39.8381,"ARG_OF_PERICENTER":105.2702,"MEAN_ANOMALY":254.843,"EPHEMERIS_TYPE":0,"CLASSIFICATION_TYPE":"U","NORAD_CAT_ID":53633,"ELEMENT_SET_NO":999,"REV_AT_EPOCH":16577,"BSTAR":-6.8440414e-5,"MEAN_MOTION_DOT":-1.377e-5,"MEAN_MOTION_DDOT":0},{"OBJECT_NAME":"STARLINK-4592","OBJECT_ID":"2022-104AY","EPOCH":"2025-08-20T21:30:48.237696","MEAN_MOTION":15.08842488,"ECCENTRICITY":0.0001315,"INCLINATION":53.2181,"RA_OF_ASC_NODE":45.4223,"ARG_OF_PERICENTER":89.4959,"MEAN_ANOMALY":270.6184,"EPHEMERIS_TYPE":0,"CLASSIFICATION_TYPE":"U","NORAD_CAT_ID":53634,"ELEMENT_SET_NO":999,"REV_AT_EPOCH":16591,"BSTAR":4.2876e-5,"MEAN_MOTION_DOT":3.95e-6,"MEAN_MOTION_DDOT":0}]
