STARLINK-4655           
1 53613U 22104AB  25234.17983193 -.00000575  00000+0 -18064-4 0  9995
2 53613  53.2184  49.9075 0001360  92.2684 267.8464 15.08837074165516
STARLINK-4605           
1 53616U 22104AE  25234.16969814  .00002049  00000+0  14682-3 0  9998
2 53616  53.2180  39.6750 0001098  79.1557 280.9558 15.08830019165761
STARLINK-4609           
1 53619U 22104AH  25232.77405111 -.00000553  00000+0 -16672-4 0  9993
2 53619  53.2173  56.0606 0001347  88.3670 271.7476 15.08835514165306
STARLINK-4615           
1 53620U 22104AJ  25232.82555160  .00001091  00000+0  86602-4 0  9997
2 53620  53.2177  55.6715 0001422  80.8271 279.2882 15.08837654165420
STARLINK-4608           
1 53621U 22104AK  25232.90284640 -.00000252  00000+0  22421-5 0  9998
2 53621  53.2178  55.4443 0001335  88.4229 271.6916 15.08838887165320
STARLINK-4568           
1 53622U 22104AL  25232.80344309 -.00000111  00000+0  11112-4 0  9995
2 53622  53.2188  55.5405 0001347  89.4375 270.6771 15.08835053165428
STARLINK-4573           
1 53623U 22104AM  25232.82923570  .00000433  00000+0  45298-4 0  9999
2 53623  53.2182  55.6966 0001311  87.8348 272.2794 15.08839332165426
STARLINK-4596           
1 53624U 22104AN  25232.81817892  .00000205  00000+0  30956-4 0  9990
2 53624  53.2171  55.6249 0001353 113.7200 246.3934 15.08837823165422
STARLINK-4554           
1 53626U 22104AQ  25232.80713151  .00000528  00000+0  51270-4 0  9994
2 53626  53.2182  55.5611 0001395  96.6252 263.4899 15.08840095165436
STARLINK-4595           
1 53627U 22104AR  25233.80809885  .00000512  00000+0  50258-4 0  9994
2 53627  53.2183  51.1429 0001243  90.9483 269.1652 15.08838042165587
STARLINK-4600           
1 53628U 22104AS  25234.19080249 -.00000417  00000+0 -80900-5 0  9997
2 53628  53.2173  49.2672 0001164  89.4729 270.6396 15.08832210165643
STARLINK-4602           
1 53629U 22104AT  25232.81081353 -.00000472  00000+0 -11543-4 0  9999
2 53629  53.2174  55.5796 0001228  93.4627 266.6506 15.08832900165436
STARLINK-4598           
1 53630U 22104AU  25234.17066342 -.00000563  00000+0 -17284-4 0  9992
2 53630  53.2200  39.8703 0001362  93.9749 266.1400 15.08835216165947
STARLINK-4599           
1 53631U 22104AV  25232.79607094 -.00000669  00000+0 -23940-4 0  9997
2 53631  53.2171  55.4890 0001284  87.9792 272.1347 15.08837197165431
STARLINK-4606           
1 53632U 22104AW  25234.16233121 -.00000271  00000+0  10326-5 0  9990
2 53632  53.2182  39.8180 0001303  90.2413 269.8729 15.08838114166103
STARLINK-4593           
1 53633U 22104AX  25234.16602623 -.00001377  00000+0 -68440-4 0  9996
2 53633  53.2181  39.8381 0001256 105.2702 254.8430 15.08827220165772
STARLINK-4592           
1 53634U 22104AY  25232.89639164  .00000395  00000+0  42876-4 0  9997
2 53634  53.2181  45.4223 0001315  89.4959 270.6184 15.08842488165915
